date:2024-08-30T03:18:52+00:00
validtle:
invalidtleinfo:Invalid TLE contents
timestamp:2024-08-30T03:18:52+00:00
TLE:
STARLINK-2345
1 47886U 21023AC  23052.76203275  .00062541  00000+0  33351-2 0  9997
2 47886  53.0503 225.3976 0001101 248.6461 111.4414 15.14599200108088